$$SOE
2461295.500000000, A.D. 2026-Sep-12 00:00:00.0000, 9.195714594063956E+07, -4.310521372976893E+08, -1.135149766747221E+07,
2461302.500000000, A.D. 2026-Sep-19 00:00:00.0000, 1.016170451761589E+08, -4.269596042999077E+08, -1.366940114145067E+07,
2461309.500000000, A.D. 2026-Sep-26 00:00:00.0000, 1.112186844778457E+08, -4.226222896393356E+08, -1.597946377117863E+07,
2461316.500000000, A.D. 2026-Oct-03 00:00:00.0000, 1.207557691044990E+08, -4.180396874434143E+08, -1.828024761179814E+07,
2461323.500000000, A.D. 2026-Oct-10 00:00:00.0000, 1.302218953245754E+08, -4.132114586547032E+08, -2.057028575340408E+07,
2461330.500000000, A.D. 2026-Oct-17 00:00:00.0000, 1.396105533416891E+08, -4.081374391322732E+08, -2.284808281426808E+07,
2461337.500000000, A.D. 2026-Oct-24 00:00:00.0000, 1.489151306786140E+08, -4.028176479803799E+08, -2.511211554708740E+07,
2461344.500000000, A.D. 2026-Oct-31 00:00:00.0000, 1.581289161447542E+08, -3.972522961475807E+08, -2.736083357908434E+07,
2461351.500000000, A.D. 2026-Nov-07 00:00:00.0000, 1.672451047523732E+08, -3.914417951970474E+08, -2.959266031725639E+07,
2461358.500000000, A.D. 2026-Nov-14 00:00:00.0000, 1.762568038076293E+08, -3.853867653335301E+08, -3.180599397084069E+07,
2461365.500000000, A.D. 2026-Nov-21 00:00:00.0000, 1.851570383879790E+08, -3.790880419745260E+08, -3.399920847509748E+07,
2461372.500000000, A.D. 2026-Nov-28 00:00:00.0000, 1.939387552295140E+08, -3.725466838380319E+08, -3.617065447641414E+07,
2461379.500000000, A.D. 2026-Dec-05 00:00:00.0000, 2.025948286651348E+08, -3.657639831636399E+08, -3.831866076977052E+07,
2461386.500000000, A.D. 2026-Dec-12 00:00:00.0000, 2.111180687989954E+08, -3.587414749150248E+08, -4.044153595461160E+07,
2461393.500000000, A.D. 2026-Dec-19 00:00:00.0000, 2.195012300478100E+08, -3.514809449139026E+08, -4.253757014029564E+07,
2461400.500000000, A.D. 2026-Dec-26 00:00:00.0000, 2.277370199214559E+08, -3.439844377263382E+08, -4.460503676328911E+07,
2461407.500000000, A.D. 2027-Jan-02 00:00:00.0000, 2.358181083303580E+08, -3.362542644418241E+08, -4.664219456074934E+07,
2461414.500000000, A.D. 2027-Jan-09 00:00:00.0000, 2.437371375444328E+08, -3.282930102715092E+08, -4.864728971266375E+07,
2461421.500000000, A.D. 2027-Jan-16 00:00:00.0000, 2.514867328421577E+08, -3.201035419002692E+08, -5.061855815735805E+07,
2461428.500000000, A.D. 2027-Jan-23 00:00:00.0000, 2.590595138940872E+08, -3.116890145723540E+08, -5.255422808916153E+07,
2461435.500000000, A.D. 2027-Jan-30 00:00:00.0000, 2.664481070627135E+08, -3.030528788954061E+08, -5.445252265967226E+07,
2461442.500000000, A.D. 2027-Feb-06 00:00:00.0000, 2.736451590338959E+08, -2.941988869586629E+08, -5.631166289323762E+07,
2461449.500000000, A.D. 2027-Feb-13 00:00:00.0000, 2.806433513049079E+08, -2.851310964819243E+08, -5.812987067330454E+07,
2461456.500000000, A.D. 2027-Feb-20 00:00:00.0000, 2.874354131430092E+08, -2.758538737214502E+08, -5.990537164464645E+07,
2461463.500000000, A.D. 2027-Feb-27 00:00:00.0000, 2.940141343807184E+08, -2.663718982780666E+08, -6.163639841742146E+07,
2461470.500000000, A.D. 2027-Mar-06 00:00:00.0000, 3.003723810315089E+08, -2.566901678153127E+08, -6.332119418652415E+07,
2461477.500000000, A.D. 2027-Mar-13 00:00:00.0000, 3.065031120864457E+08, -2.468140005709775E+08, -6.495801644453874E+07,
2461484.500000000, A.D. 2027-Mar-20 00:00:00.0000, 3.123993963159989E+08, -2.367490364315498E+08, -6.654514074393849E+07,
2461491.500000000, A.D. 2027-Mar-27 00:00:00.0000, 3.180544292253543E+08, -2.265012370552219E+08, -6.808086456122509E+07,
2461498.500000000, A.D. 2027-Apr-03 00:00:00.0000, 3.234615503054440E+08, -2.160768850307881E+08, -6.956351127317286E+07,
2461505.500000000, A.D. 2027-Apr-10 00:00:00.0000, 3.286142605732496E+08, -2.054825819932157E+08, -7.099143423496249E+07,
2461512.500000000, A.D. 2027-Apr-17 00:00:00.0000, 3.335062403481387E+08, -1.947252456594283E+08, -7.236302094773017E+07,
2461519.500000000, A.D. 2027-Apr-24 00:00:00.0000, 3.381313672593865E+08, -1.838121058013379E+08, -7.367669731005058E+07,
2461526.500000000, A.D. 2027-May-01 00:00:00.0000, 3.424837346918806E+08, -1.727506990878337E+08, -7.493093195809545E+07,
2461533.500000000, A.D. 2027-May-08 00:00:00.0000, 3.465576708797832E+08, -1.615488620119067E+08, -7.612424063895507E+07,
2461540.500000000, A.D. 2027-May-15 00:00:00.0000, 3.503477570516719E+08, -1.502147209229333E+08, -7.725519037861809E+07,
2461547.500000000, A.D. 2027-May-22 00:00:00.0000, 3.538488429594010E+08, -1.387566817394082E+08, -7.832240348894700E+07,
2461554.500000000, A.D. 2027-May-29 00:00:00.0000, 3.570560630382159E+08, -1.271834208022439E+08, -7.932456181634891E+07,
2461561.500000000, A.D. 2027-Jun-05 00:00:00.0000, 3.599648539746126E+08, -1.155038737398763E+08, -8.026041103238310E+07,
2461568.500000000, A.D. 2027-Jun-12 00:00:00.0000, 3.625709715655735E+08, -1.037272219306363E+08, -8.112876472203095E+07,
2461575.500000000, A.D. 2027-Jun-19 00:00:00.0000, 3.648705064266496E+08, -9.186287752704692E+07, -8.192850828989251E+07,
2461582.500000000, A.D. 2027-Jun-26 00:00:00.0000, 3.668598987155967E+08, -7.992046734364119E+07, -8.265860270457037E+07,
2461589.500000000, A.D. 2027-Jul-03 00:00:00.0000, 3.685359518924504E+08, -6.790981565085396E+07, -8.331808806570075E+07,
2461596.500000000, A.D. 2027-Jul-10 00:00:00.0000, 3.698958454453079E+08, -5.584092592818727E+07, -8.390608696977282E+07,
2461603.500000000, A.D. 2027-Jul-17 00:00:00.0000, 3.709371465158423E+08, -4.372396168903470E+07, -8.442180765571088E+07,
2461610.500000000, A.D. 2027-Jul-24 00:00:00.0000, 3.716578204843462E+08, -3.156922652530606E+07, -8.486454692530432E+07,
2461617.500000000, A.D. 2027-Jul-31 00:00:00.0000, 3.720562408344849E+08, -1.938714323189987E+07, -8.523369283334725E+07,
2461624.500000000, A.D. 2027-Aug-07 00:00:00.0000, 3.721311980147895E+08, -7.188230961890925E+06, -8.552872701292831E+07,
2461631.500000000, A.D. 2027-Aug-14 00:00:00.0000, 3.718819049291422E+08, 5.016919222399715E+06, -8.574922642764962E+07,
2461638.500000000, A.D. 2027-Aug-21 00:00:00.0000, 3.713079996184193E+08, 1.721766691389495E+07, -8.589486486745445E+07,
2461645.500000000, A.D. 2027-Aug-28 00:00:00.0000, 3.704095485138724E+08, 2.940334411393454E+07, -8.596541438993682E+07,
2461652.500000000, A.D. 2027-Sep-04 00:00:00.0000, 3.691870490437776E+08, 4.156327854396484E+07, -8.596074638257654E+07,
2461659.500000000, A.D. 2027-Sep-11 00:00:00.0000, 3.676414301764180E+08, 5.368681771771197E+07, -8.588083216412158E+07,
2461666.500000000, A.D. 2027-Sep-18 00:00:00.0000, 3.657740510244979E+08, 6.576335298385045E+07, -8.572574318574238E+07,
2461673.500000000, A.D. 2027-Sep-25 00:00:00.0000, 3.635866977447577E+08, 7.778234332091469E+07, -8.549565085736303E+07,
2461680.500000000, A.D. 2027-Oct-02 00:00:00.0000, 3.610815788258241E+08, 8.973333877249674E+07, -8.519082600464648E+07,
2461687.500000000, A.D. 2027-Oct-09 00:00:00.0000, 3.582613188178006E+08, 1.016060033816903E+08, -8.481163796274967E+07,
2461694.500000000, A.D. 2027-Oct-16 00:00:00.0000, 3.551289506109062E+08, 1.133901374380929E+08, -8.435855332389194E+07,
2461701.500000000, A.D. 2027-Oct-23 00:00:00.0000, 3.516879065799265E+08, 1.250756989054640E+08, -8.383213437307024E+07,
2461708.500000000, A.D. 2027-Oct-30 00:00:00.0000, 3.479420090362192E+08, 1.366528245201946E+08, -8.323303720897473E+07,
2461715.500000000, A.D. 2027-Nov-06 00:00:00.0000, 3.438954588991966E+08, 1.481118515791174E+08, -8.256200936582145E+07,
2461722.500000000, A.D. 2027-Nov-13 00:00:00.0000, 3.395528206928403E+08, 1.594433382441886E+08, -8.181988694333477E+07,
2461729.500000000, A.D. 2027-Nov-20 00:00:00.0000, 3.349190068729223E+08, 1.706380800872048E+08, -8.100759171307050E+07,
2461736.500000000, A.D. 2027-Nov-27 00:00:00.0000, 3.299992632070182E+08, 1.816871257556672E+08, -8.012612812972632E+07,
2461743.500000000, A.D. 2027-Dec-04 00:00:00.0000, 3.247991532924957E+08, 1.925817926046405E+08, -7.917658001055159E+07,
2461750.500000000, A.D. 2027-Dec-11 00:00:00.0000, 3.193245417768800E+08, 2.033136812744885E+08, -7.816010693635421E+07,
2461757.500000000, A.D. 2027-Dec-18 00:00:00.0000, 3.135815766737361E+08, 2.138746888312950E+08, -7.707794045318376E+07,
2461764.500000000, A.D. 2027-Dec-25 00:00:00.0000, 3.075766710455220E+08, 2.242570204361158E+08, -7.593138011547694E+07,
2461771.500000000, A.D. 2028-Jan-01 00:00:00.0000, 3.013164842145188E+08, 2.344531995382963E+08, -7.472178940026313E+07,
$$EOE